<?xml version='1.0' encoding='utf-8'?>
<gpx xmlns="http://www.topografix.com/GPX/1/1" version="1.1" creator="BYD HUD diagnostic; OpenStreetMap contributors / OSRM">
  <trk>
    <name>Shanghai east city drive; WGS84; 1 Hz; 40 km/h; 30s start / 10s end</name>
    <trkseg>
      <trkpt lat="31.2304000" lon="121.4737000" />
      <trkpt lat="31.2304000" lon="121.4737000" />
      <trkpt lat="31.2304000" lon="121.4737000" />
      <trkpt lat="31.2304000" lon="121.4737000" />
      <trkpt lat="31.2304000" lon="121.4737000" />
      <trkpt lat="31.2304000" lon="121.4737000" />
      <trkpt lat="31.2304000" lon="121.4737000" />
      <trkpt lat="31.2304000" lon="121.4737000" />
      <trkpt lat="31.2304000" lon="121.4737000" />
      <trkpt lat="31.2304000" lon="121.4737000" />
      <trkpt lat="31.2304000" lon="121.4737000" />
      <trkpt lat="31.2304000" lon="121.4737000" />
      <trkpt lat="31.2304000" lon="121.4737000" />
      <trkpt lat="31.2304000" lon="121.4737000" />
      <trkpt lat="31.2304000" lon="121.4737000" />
      <trkpt lat="31.2304000" lon="121.4737000" />
      <trkpt lat="31.2304000" lon="121.4737000" />
      <trkpt lat="31.2304000" lon="121.4737000" />
      <trkpt lat="31.2304000" lon="121.4737000" />
      <trkpt lat="31.2304000" lon="121.4737000" />
      <trkpt lat="31.2304000" lon="121.4737000" />
      <trkpt lat="31.2304000" lon="121.4737000" />
      <trkpt lat="31.2304000" lon="121.4737000" />
      <trkpt lat="31.2304000" lon="121.4737000" />
      <trkpt lat="31.2304000" lon="121.4737000" />
      <trkpt lat="31.2304000" lon="121.4737000" />
      <trkpt lat="31.2304000" lon="121.4737000" />
      <trkpt lat="31.2304000" lon="121.4737000" />
      <trkpt lat="31.2304000" lon="121.4737000" />
      <trkpt lat="31.2304000" lon="121.4737000" />
      <trkpt lat="31.2304000" lon="121.4737000" />
      <trkpt lat="31.2303848" lon="121.4737811" />
      <trkpt lat="31.2304385" lon="121.4738797" />
      <trkpt lat="31.2304835" lon="121.4739839" />
      <trkpt lat="31.2305414" lon="121.4740787" />
      <trkpt lat="31.2306026" lon="121.4741711" />
      <trkpt lat="31.2306638" lon="121.4742635" />
      <trkpt lat="31.2307250" lon="121.4743559" />
      <trkpt lat="31.2307849" lon="121.4744493" />
      <trkpt lat="31.2308384" lon="121.4745480" />
      <trkpt lat="31.2308926" lon="121.4746462" />
      <trkpt lat="31.2309442" lon="121.4747463" />
      <trkpt lat="31.2309951" lon="121.4748468" />
      <trkpt lat="31.2310461" lon="121.4749473" />
      <trkpt lat="31.2310966" lon="121.4750481" />
      <trkpt lat="31.2311450" lon="121.4751503" />
      <trkpt lat="31.2311935" lon="121.4752525" />
      <trkpt lat="31.2312420" lon="121.4753547" />
      <trkpt lat="31.2312904" lon="121.4754569" />
      <trkpt lat="31.2313389" lon="121.4755591" />
      <trkpt lat="31.2313873" lon="121.4756613" />
      <trkpt lat="31.2314345" lon="121.4757644" />
      <trkpt lat="31.2314813" lon="121.4758676" />
      <trkpt lat="31.2315280" lon="121.4759709" />
      <trkpt lat="31.2315747" lon="121.4760742" />
      <trkpt lat="31.2316233" lon="121.4761758" />
      <trkpt lat="31.2316908" lon="121.4762619" />
      <trkpt lat="31.2317584" lon="121.4763479" />
      <trkpt lat="31.2318260" lon="121.4764340" />
      <trkpt lat="31.2318883" lon="121.4765250" />
      <trkpt lat="31.2319455" lon="121.4766209" />
      <trkpt lat="31.2319980" lon="121.4767203" />
      <trkpt lat="31.2320504" lon="121.4768198" />
      <trkpt lat="31.2321029" lon="121.4769193" />
      <trkpt lat="31.2321553" lon="121.4770187" />
      <trkpt lat="31.2322082" lon="121.4771179" />
      <trkpt lat="31.2322624" lon="121.4772161" />
      <trkpt lat="31.2323166" lon="121.4773143" />
      <trkpt lat="31.2323696" lon="121.4774133" />
      <trkpt lat="31.2324214" lon="121.4775132" />
      <trkpt lat="31.2324732" lon="121.4776131" />
      <trkpt lat="31.2325215" lon="121.4777154" />
      <trkpt lat="31.2325637" lon="121.4778212" />
      <trkpt lat="31.2326026" lon="121.4779289" />
      <trkpt lat="31.2326415" lon="121.4780365" />
      <trkpt lat="31.2326804" lon="121.4781441" />
      <trkpt lat="31.2327167" lon="121.4782530" />
      <trkpt lat="31.2327530" lon="121.4783619" />
      <trkpt lat="31.2327893" lon="121.4784708" />
      <trkpt lat="31.2328205" lon="121.4785818" />
      <trkpt lat="31.2328482" lon="121.4786940" />
      <trkpt lat="31.2328739" lon="121.4788069" />
      <trkpt lat="31.2329000" lon="121.4789197" />
      <trkpt lat="31.2329262" lon="121.4790325" />
      <trkpt lat="31.2329524" lon="121.4791453" />
      <trkpt lat="31.2329785" lon="121.4792581" />
      <trkpt lat="31.2330074" lon="121.4793699" />
      <trkpt lat="31.2330372" lon="121.4794815" />
      <trkpt lat="31.2330669" lon="121.4795931" />
      <trkpt lat="31.2330967" lon="121.4797046" />
      <trkpt lat="31.2331280" lon="121.4798156" />
      <trkpt lat="31.2331611" lon="121.4799259" />
      <trkpt lat="31.2331895" lon="121.4800379" />
      <trkpt lat="31.2332113" lon="121.4801519" />
      <trkpt lat="31.2332327" lon="121.4802661" />
      <trkpt lat="31.2332493" lon="121.4803811" />
      <trkpt lat="31.2332559" lon="121.4804978" />
      <trkpt lat="31.2332524" lon="121.4806143" />
      <trkpt lat="31.2332442" lon="121.4807307" />
      <trkpt lat="31.2332327" lon="121.4808468" />
      <trkpt lat="31.2332212" lon="121.4809629" />
      <trkpt lat="31.2332096" lon="121.4810790" />
      <trkpt lat="31.2331943" lon="121.4811943" />
      <trkpt lat="31.2331713" lon="121.4813080" />
      <trkpt lat="31.2331484" lon="121.4814218" />
      <trkpt lat="31.2331254" lon="121.4815355" />
      <trkpt lat="31.2331025" lon="121.4816492" />
      <trkpt lat="31.2330795" lon="121.4817630" />
      <trkpt lat="31.2330566" lon="121.4818767" />
      <trkpt lat="31.2330248" lon="121.4819869" />
      <trkpt lat="31.2329824" lon="121.4820927" />
      <trkpt lat="31.2329393" lon="121.4821981" />
      <trkpt lat="31.2328973" lon="121.4823037" />
      <trkpt lat="31.2328715" lon="121.4824164" />
      <trkpt lat="31.2328502" lon="121.4825306" />
      <trkpt lat="31.2328418" lon="121.4826470" />
      <trkpt lat="31.2328451" lon="121.4827635" />
      <trkpt lat="31.2328647" lon="121.4828773" />
      <trkpt lat="31.2329136" lon="121.4829787" />
      <trkpt lat="31.2329761" lon="121.4830697" />
      <trkpt lat="31.2330428" lon="121.4831567" />
      <trkpt lat="31.2331099" lon="121.4832433" />
      <trkpt lat="31.2331740" lon="121.4833329" />
      <trkpt lat="31.2332378" lon="121.4834228" />
      <trkpt lat="31.2333011" lon="121.4835133" />
      <trkpt lat="31.2333592" lon="121.4836076" />
      <trkpt lat="31.2333977" lon="121.4837153" />
      <trkpt lat="31.2334279" lon="121.4838266" />
      <trkpt lat="31.2334558" lon="121.4839388" />
      <trkpt lat="31.2334816" lon="121.4840517" />
      <trkpt lat="31.2335056" lon="121.4841652" />
      <trkpt lat="31.2335296" lon="121.4842786" />
      <trkpt lat="31.2335537" lon="121.4843920" />
      <trkpt lat="31.2335833" lon="121.4845035" />
      <trkpt lat="31.2336163" lon="121.4846138" />
      <trkpt lat="31.2336513" lon="121.4847233" />
      <trkpt lat="31.2336874" lon="121.4848322" />
      <trkpt lat="31.2337315" lon="121.4849370" />
      <trkpt lat="31.2337833" lon="121.4850369" />
      <trkpt lat="31.2338351" lon="121.4851369" />
      <trkpt lat="31.2338952" lon="121.4852300" />
      <trkpt lat="31.2339576" lon="121.4853213" />
      <trkpt lat="31.2340199" lon="121.4854127" />
      <trkpt lat="31.2340825" lon="121.4855037" />
      <trkpt lat="31.2341485" lon="121.4855915" />
      <trkpt lat="31.2342131" lon="121.4856806" />
      <trkpt lat="31.2341599" lon="121.4857460" />
      <trkpt lat="31.2340727" lon="121.4858031" />
      <trkpt lat="31.2339855" lon="121.4858602" />
      <trkpt lat="31.2338930" lon="121.4859035" />
      <trkpt lat="31.2337989" lon="121.4859429" />
      <trkpt lat="31.2337048" lon="121.4859823" />
      <trkpt lat="31.2336107" lon="121.4860216" />
      <trkpt lat="31.2335167" lon="121.4860610" />
      <trkpt lat="31.2334226" lon="121.4861004" />
      <trkpt lat="31.2333285" lon="121.4861397" />
      <trkpt lat="31.2332944" lon="121.4862141" />
      <trkpt lat="31.2333241" lon="121.4863257" />
      <trkpt lat="31.2333538" lon="121.4864372" />
      <trkpt lat="31.2333835" lon="121.4865488" />
      <trkpt lat="31.2334132" lon="121.4866604" />
      <trkpt lat="31.2334430" lon="121.4867720" />
      <trkpt lat="31.2334727" lon="121.4868835" />
      <trkpt lat="31.2335024" lon="121.4869951" />
      <trkpt lat="31.2334353" lon="121.4870484" />
      <trkpt lat="31.2333404" lon="121.4870851" />
      <trkpt lat="31.2332455" lon="121.4871217" />
      <trkpt lat="31.2331506" lon="121.4871583" />
      <trkpt lat="31.2330555" lon="121.4871944" />
      <trkpt lat="31.2329604" lon="121.4872300" />
      <trkpt lat="31.2328652" lon="121.4872656" />
      <trkpt lat="31.2327700" lon="121.4873012" />
      <trkpt lat="31.2326748" lon="121.4873367" />
      <trkpt lat="31.2325797" lon="121.4873723" />
      <trkpt lat="31.2324845" lon="121.4874079" />
      <trkpt lat="31.2323893" lon="121.4874435" />
      <trkpt lat="31.2322941" lon="121.4874791" />
      <trkpt lat="31.2322259" lon="121.4874505" />
      <trkpt lat="31.2321917" lon="121.4873407" />
      <trkpt lat="31.2321574" lon="121.4872309" />
      <trkpt lat="31.2321231" lon="121.4871211" />
      <trkpt lat="31.2320889" lon="121.4870114" />
      <trkpt lat="31.2320546" lon="121.4869016" />
      <trkpt lat="31.2320203" lon="121.4867918" />
      <trkpt lat="31.2319860" lon="121.4866821" />
      <trkpt lat="31.2319517" lon="121.4865723" />
      <trkpt lat="31.2318712" lon="121.4865114" />
      <trkpt lat="31.2317821" lon="121.4864595" />
      <trkpt lat="31.2316902" lon="121.4864134" />
      <trkpt lat="31.2315984" lon="121.4863674" />
      <trkpt lat="31.2315065" lon="121.4863213" />
      <trkpt lat="31.2314711" lon="121.4862378" />
      <trkpt lat="31.2314843" lon="121.4861220" />
      <trkpt lat="31.2314974" lon="121.4860061" />
      <trkpt lat="31.2315106" lon="121.4858903" />
      <trkpt lat="31.2315099" lon="121.4857742" />
      <trkpt lat="31.2314996" lon="121.4856580" />
      <trkpt lat="31.2314892" lon="121.4855418" />
      <trkpt lat="31.2314737" lon="121.4854264" />
      <trkpt lat="31.2314545" lon="121.4853117" />
      <trkpt lat="31.2314354" lon="121.4851970" />
      <trkpt lat="31.2314162" lon="121.4850824" />
      <trkpt lat="31.2313971" lon="121.4849677" />
      <trkpt lat="31.2313779" lon="121.4848530" />
      <trkpt lat="31.2313587" lon="121.4847383" />
      <trkpt lat="31.2313396" lon="121.4846236" />
      <trkpt lat="31.2313204" lon="121.4845089" />
      <trkpt lat="31.2313013" lon="121.4843942" />
      <trkpt lat="31.2312821" lon="121.4842795" />
      <trkpt lat="31.2312610" lon="121.4841653" />
      <trkpt lat="31.2312397" lon="121.4840511" />
      <trkpt lat="31.2312184" lon="121.4839370" />
      <trkpt lat="31.2311971" lon="121.4838228" />
      <trkpt lat="31.2311757" lon="121.4837086" />
      <trkpt lat="31.2311544" lon="121.4835944" />
      <trkpt lat="31.2311331" lon="121.4834803" />
      <trkpt lat="31.2311118" lon="121.4833661" />
      <trkpt lat="31.2310904" lon="121.4832519" />
      <trkpt lat="31.2310690" lon="121.4831378" />
      <trkpt lat="31.2310476" lon="121.4830237" />
      <trkpt lat="31.2310262" lon="121.4829095" />
      <trkpt lat="31.2310048" lon="121.4827954" />
      <trkpt lat="31.2310653" lon="121.4827466" />
      <trkpt lat="31.2311640" lon="121.4827284" />
      <trkpt lat="31.2312625" lon="121.4827092" />
      <trkpt lat="31.2313609" lon="121.4826888" />
      <trkpt lat="31.2314593" lon="121.4826685" />
      <trkpt lat="31.2315577" lon="121.4826481" />
      <trkpt lat="31.2316561" lon="121.4826278" />
      <trkpt lat="31.2317545" lon="121.4826074" />
      <trkpt lat="31.2318529" lon="121.4825871" />
      <trkpt lat="31.2319513" lon="121.4825667" />
      <trkpt lat="31.2320497" lon="121.4825464" />
      <trkpt lat="31.2321480" lon="121.4825253" />
      <trkpt lat="31.2322462" lon="121.4825036" />
      <trkpt lat="31.2323444" lon="121.4824820" />
      <trkpt lat="31.2324426" lon="121.4824603" />
      <trkpt lat="31.2325408" lon="121.4824387" />
      <trkpt lat="31.2326388" lon="121.4824160" />
      <trkpt lat="31.2327367" lon="121.4823926" />
      <trkpt lat="31.2328345" lon="121.4823689" />
      <trkpt lat="31.2329305" lon="121.4823367" />
      <trkpt lat="31.2330250" lon="121.4822990" />
      <trkpt lat="31.2331127" lon="121.4822436" />
      <trkpt lat="31.2332042" lon="121.4821969" />
      <trkpt lat="31.2332978" lon="121.4821560" />
      <trkpt lat="31.2333954" lon="121.4821316" />
      <trkpt lat="31.2334933" lon="121.4821078" />
      <trkpt lat="31.2335913" lon="121.4820852" />
      <trkpt lat="31.2336894" lon="121.4820630" />
      <trkpt lat="31.2337875" lon="121.4820408" />
      <trkpt lat="31.2338856" lon="121.4820186" />
      <trkpt lat="31.2339837" lon="121.4819963" />
      <trkpt lat="31.2340818" lon="121.4819737" />
      <trkpt lat="31.2341798" lon="121.4819512" />
      <trkpt lat="31.2342779" lon="121.4819286" />
      <trkpt lat="31.2343759" lon="121.4819063" />
      <trkpt lat="31.2344740" lon="121.4818838" />
      <trkpt lat="31.2345720" lon="121.4818612" />
      <trkpt lat="31.2346701" lon="121.4818387" />
      <trkpt lat="31.2347681" lon="121.4818161" />
      <trkpt lat="31.2348661" lon="121.4817932" />
      <trkpt lat="31.2349641" lon="121.4817702" />
      <trkpt lat="31.2350621" lon="121.4817472" />
      <trkpt lat="31.2351600" lon="121.4817242" />
      <trkpt lat="31.2352580" lon="121.4817012" />
      <trkpt lat="31.2353559" lon="121.4816779" />
      <trkpt lat="31.2354538" lon="121.4816546" />
      <trkpt lat="31.2355517" lon="121.4816313" />
      <trkpt lat="31.2356488" lon="121.4816035" />
      <trkpt lat="31.2357454" lon="121.4815738" />
      <trkpt lat="31.2358420" lon="121.4815438" />
      <trkpt lat="31.2359386" lon="121.4815139" />
      <trkpt lat="31.2360352" lon="121.4814840" />
      <trkpt lat="31.2361326" lon="121.4814582" />
      <trkpt lat="31.2362306" lon="121.4814352" />
      <trkpt lat="31.2363285" lon="121.4814121" />
      <trkpt lat="31.2364265" lon="121.4813891" />
      <trkpt lat="31.2365242" lon="121.4813647" />
      <trkpt lat="31.2366218" lon="121.4813395" />
      <trkpt lat="31.2367191" lon="121.4813132" />
      <trkpt lat="31.2368155" lon="121.4812824" />
      <trkpt lat="31.2369119" lon="121.4812516" />
      <trkpt lat="31.2370083" lon="121.4812207" />
      <trkpt lat="31.2371047" lon="121.4811899" />
      <trkpt lat="31.2372011" lon="121.4811591" />
      <trkpt lat="31.2372975" lon="121.4811283" />
      <trkpt lat="31.2373939" lon="121.4810975" />
      <trkpt lat="31.2374902" lon="121.4810666" />
      <trkpt lat="31.2375866" lon="121.4810358" />
      <trkpt lat="31.2376830" lon="121.4810050" />
      <trkpt lat="31.2377794" lon="121.4809742" />
      <trkpt lat="31.2378758" lon="121.4809433" />
      <trkpt lat="31.2379036" lon="121.4810503" />
      <trkpt lat="31.2379283" lon="121.4811635" />
      <trkpt lat="31.2379530" lon="121.4812768" />
      <trkpt lat="31.2379777" lon="121.4813900" />
      <trkpt lat="31.2380024" lon="121.4815033" />
      <trkpt lat="31.2380270" lon="121.4816165" />
      <trkpt lat="31.2380517" lon="121.4817298" />
      <trkpt lat="31.2380680" lon="121.4818020" />
      <trkpt lat="31.2380680" lon="121.4818020" />
      <trkpt lat="31.2380680" lon="121.4818020" />
      <trkpt lat="31.2380680" lon="121.4818020" />
      <trkpt lat="31.2380680" lon="121.4818020" />
      <trkpt lat="31.2380680" lon="121.4818020" />
      <trkpt lat="31.2380680" lon="121.4818020" />
      <trkpt lat="31.2380680" lon="121.4818020" />
      <trkpt lat="31.2380680" lon="121.4818020" />
      <trkpt lat="31.2380680" lon="121.4818020" />
      <trkpt lat="31.2380680" lon="121.4818020" />
    </trkseg>
  </trk>
</gpx>